start=new Date('2021-10-14T00:00:00.000Z').valueOf();
sats=[{"EPOCH":"2021-10-13T11:25:01.822656","BSTAR":"-0.00017568000000","MEAN_MOTION_DOT":"-0.00002899","RA_OF_ASC_NODE":"291.1606","OBJECT_TYPE":"PAYLOAD","MEAN_MOTION_DDOT":"0.0000000000000","APOAPSIS":"548.097","REF_FRAME":"TEME","TLE_LINE1":"1 47888U 21021AE  21286.47571554 -.00002899  00000-0 -17568-3 0  9998","MEAN_ANOMALY":"260.8672","LAUNCH_DATE":"2021-03-14","MEAN_MOTION":"15.06419283","ELEMENT_SET_NO":"999","CENTER_NAME":"EARTH","SEMIMAJOR_AXIS":"6925.289","ARG_OF_PERICENTER":"99.2471","MEAN_ELEMENT_THEORY":"SGP4","OBJECT_ID":"2021-021AE","DECAY_DATE":null,"FILE":"3160689","COUNTRY_CODE":"US","NORAD_CAT_ID":"47888","CLASSIFICATION_TYPE":"U","RCS_SIZE":"LARGE","ECCENTRICITY":"0.00013610","PERIAPSIS":"546.212","PERIOD":"95.591","OBJECT_NAME":"STARLINK-2348","TIME_SYSTEM":"UTC","REV_AT_EPOCH":"3380","EPHEMERIS_TYPE":"0","INCLINATION":"53.0551","GP_ID":"187069616","SITE":"AFETR","TLE_LINE2":"2 47888  53.0551 291.1606 0001361  99.2471 260.8672 15.06419283 33808"},{"FILE":"3160689","COUNTRY_CODE":"US","NORAD_CAT_ID":"47889","CLASSIFICATION_TYPE":"U","RCS_SIZE":"LARGE","ECCENTRICITY":"0.00011260","PERIAPSIS":"546.419","PERIOD":"95.592","OBJECT_NAME":"STARLINK-2349","TIME_SYSTEM":"UTC","REV_AT_EPOCH":"3384","EPHEMERIS_TYPE":"0","INCLINATION":"53.0562","GP_ID":"187068364","SITE":"AFETR","TLE_LINE2":"2 47889  53.0562 291.4155 0001126  87.2691 272.8427 15.06404878 33842","EPOCH":"2021-10-13T10:05:24.885024","BSTAR":"0.00019408000000","MEAN_MOTION_DOT":"0.00002611","OBJECT_TYPE":"PAYLOAD","RA_OF_ASC_NODE":"291.4155","MEAN_MOTION_DDOT":"0.0000000000000","APOAPSIS":"547.978","REF_FRAME":"TEME","TLE_LINE1":"1 47889U 21021AF  21286.42042691  .00002611  00000-0  19408-3 0  9994","MEAN_ANOMALY":"272.8427","LAUNCH_DATE":"2021-03-14","MEAN_MOTION":"15.06404878","ELEMENT_SET_NO":"999","SEMIMAJOR_AXIS":"6925.334","ARG_OF_PERICENTER":"87.2691","CENTER_NAME":"EARTH","MEAN_ELEMENT_THEORY":"SGP4","OBJECT_ID":"2021-021AF","DECAY_DATE":null},{"EPHEMERIS_TYPE":"0","INCLINATION":"53.0562","SITE":"AFETR","TLE_LINE2":"2 47890  53.0562 301.9099 0001208  84.5398 275.5729 15.06406092 32689","GP_ID":"187068614","RCS_SIZE":"LARGE","CLASSIFICATION_TYPE":"U","COUNTRY_CODE":"US","FILE":"3160689","NORAD_CAT_ID":"47890","TIME_SYSTEM":"UTC","OBJECT_NAME":"STARLINK-2350","REV_AT_EPOCH":"3268","PERIOD":"95.592","ECCENTRICITY":"0.00012080","PERIAPSIS":"546.358","MEAN_ELEMENT_THEORY":"SGP4","ARG_OF_PERICENTER":"84.5398","SEMIMAJOR_AXIS":"6925.330","CENTER_NAME":"EARTH","ELEMENT_SET_NO":"999","OBJECT_ID":"2021-021AG","DECAY_DATE":null,"MEAN_MOTION_DDOT":"0.0000000000000","OBJECT_TYPE":"PAYLOAD","RA_OF_ASC_NODE":"301.9099","REF_FRAME":"TEME","APOAPSIS":"548.031","EPOCH":"2021-10-13T07:24:51.545952","MEAN_MOTION_DOT":"0.00000449","BSTAR":"0.00004901100000","MEAN_MOTION":"15.06406092","MEAN_ANOMALY":"275.5729","TLE_LINE1":"1 47890U 21021AG  21286.30892993  .00000449  00000-0  49011-4 0  9992","LAUNCH_DATE":"2021-03-14"},{"OBJECT_ID":"2021-021AH","DECAY_DATE":null,"ELEMENT_SET_NO":"999","MEAN_ELEMENT_THEORY":"SGP4","SEMIMAJOR_AXIS":"6925.356","ARG_OF_PERICENTER":"76.5128","CENTER_NAME":"EARTH","TLE_LINE1":"1 47891U 21021AH  21286.36054397  .00000120  00000-0  26947-4 0  9996","MEAN_ANOMALY":"283.5994","LAUNCH_DATE":"2021-03-14","MEAN_MOTION":"15.06397644","EPOCH":"2021-10-13T08:39:10.999008","MEAN_MOTION_DOT":"0.00000120","BSTAR":"0.00002694700000","MEAN_MOTION_DDOT":"0.0000000000000","RA_OF_ASC_NODE":"301.6735","OBJECT_TYPE":"PAYLOAD","REF_FRAME":"TEME","APOAPSIS":"548.044","GP_ID":"187069366","SITE":"AFETR","TLE_LINE2":"2 47891  53.0546 301.6735 0001188  76.5128 283.5994 15.06397644 33805","EPHEMERIS_TYPE":"0","INCLINATION":"53.0546","PERIOD":"95.592","ECCENTRICITY":"0.00011880","PERIAPSIS":"546.398","TIME_SYSTEM":"UTC","OBJECT_NAME":"STARLINK-2351","REV_AT_EPOCH":"3380","COUNTRY_CODE":"US","FILE":"3160689","NORAD_CAT_ID":"47891","RCS_SIZE":"LARGE","CLASSIFICATION_TYPE":"U"},{"PERIOD":"95.592","PERIAPSIS":"546.462","ECCENTRICITY":"0.00010740","OBJECT_NAME":"STARLINK-2352","TIME_SYSTEM":"UTC","REV_AT_EPOCH":"3366","COUNTRY_CODE":"US","FILE":"3161149","NORAD_CAT_ID":"47892","RCS_SIZE":"LARGE","CLASSIFICATION_TYPE":"U","GP_ID":"187102254","SITE":"AFETR","TLE_LINE2":"2 47892  53.0552 301.0010 0001074  75.6948 284.4160 15.06402386 33666","EPHEMERIS_TYPE":"0","INCLINATION":"53.0552","TLE_LINE1":"1 47892U 21021AJ  21286.51166229  .00000453  00000-0  49266-4 0  9990","MEAN_ANOMALY":"284.4160","LAUNCH_DATE":"2021-03-14","MEAN_MOTION":"15.06402386","EPOCH":"2021-10-13T12:16:47.621856","MEAN_MOTION_DOT":"0.00000453","BSTAR":"0.00004926600000","MEAN_MOTION_DDOT":"0.0000000000000","RA_OF_ASC_NODE":"301.0010","OBJECT_TYPE":"PAYLOAD","REF_FRAME":"TEME","APOAPSIS":"547.950","OBJECT_ID":"2021-021AJ","DECAY_DATE":null,"ELEMENT_SET_NO":"999","MEAN_ELEMENT_THEORY":"SGP4","ARG_OF_PERICENTER":"75.6948","SEMIMAJOR_AXIS":"6925.341","CENTER_NAME":"EARTH"},{"RCS_SIZE":"LARGE","CLASSIFICATION_TYPE":"U","COUNTRY_CODE":"US","FILE":"3161149","NORAD_CAT_ID":"47894","OBJECT_NAME":"STARLINK-2354","TIME_SYSTEM":"UTC","REV_AT_EPOCH":"3378","PERIOD":"95.592","ECCENTRICITY":"0.00012350","PERIAPSIS":"546.367","EPHEMERIS_TYPE":"0","INCLINATION":"53.0571","SITE":"AFETR","TLE_LINE2":"2 47894  53.0571 290.0922 0001235  84.8282 275.2848 15.06397244 33780","GP_ID":"187100506","MEAN_MOTION_DDOT":"0.0000000000000","RA_OF_ASC_NODE":"290.0922","OBJECT_TYPE":"PAYLOAD","REF_FRAME":"TEME","APOAPSIS":"548.077","EPOCH":"2021-10-13T17:10:02.748576","MEAN_MOTION_DOT":"-0.00000317","BSTAR":"-0.00000237790000","MEAN_MOTION":"15.06397244","MEAN_ANOMALY":"275.2848","TLE_LINE1":"1 47894U 21021AL  21286.71530959 -.00000317  00000-0 -23779-5 0  9992","LAUNCH_DATE":"2021-03-14","MEAN_ELEMENT_THEORY":"SGP4","SEMIMAJOR_AXIS":"6925.357","CENTER_NAME":"EARTH","ARG_OF_PERICENTER":"84.8282","ELEMENT_SET_NO":"999","OBJECT_ID":"2021-021AL","DECAY_DATE":null},{"EPOCH":"2021-10-13T17:25:58.024992","MEAN_MOTION_DOT":"0.00002950","BSTAR":"0.00021683000000","MEAN_MOTION_DDOT":"0.0000000000000","RA_OF_ASC_NODE":"290.0393","OBJECT_TYPE":"PAYLOAD","REF_FRAME":"TEME","APOAPSIS":"548.215","MEAN_ANOMALY":"271.7696","TLE_LINE1":"1 47895U 21021AM  21286.72636603  .00002950  00000-0  21683-3 0  9990","LAUNCH_DATE":"2021-03-14","MEAN_MOTION":"15.06406039","ELEMENT_SET_NO":"999","MEAN_ELEMENT_THEORY":"SGP4","CENTER_NAME":"EARTH","SEMIMAJOR_AXIS":"6925.330","ARG_OF_PERICENTER":"88.3462","OBJECT_ID":"2021-021AM","DECAY_DATE":null,"COUNTRY_CODE":"US","FILE":"3161149","NORAD_CAT_ID":"47895","RCS_SIZE":"LARGE","CLASSIFICATION_TYPE":"U","PERIOD":"95.592","PERIAPSIS":"546.175","ECCENTRICITY":"0.00014730","OBJECT_NAME":"STARLINK-2355","TIME_SYSTEM":"UTC","REV_AT_EPOCH":"3381","EPHEMERIS_TYPE":"0","INCLINATION":"53.0551","GP_ID":"187100756","SITE":"AFETR","TLE_LINE2":"2 47895  53.0551 290.0393 0001473  88.3462 271.7696 15.06406039 33813"},{"OBJECT_NAME":"STARLINK-2356","TIME_SYSTEM":"UTC","REV_AT_EPOCH":"3353","PERIOD":"95.592","PERIAPSIS":"546.488","ECCENTRICITY":"0.00010230","RCS_SIZE":"LARGE","CLASSIFICATION_TYPE":"U","COUNTRY_CODE":"US","FILE":"3160689","NORAD_CAT_ID":"47896","SITE":"AFETR","TLE_LINE2":"2 47896  53.0539 306.2171 0001023  73.4223 286.6879 15.06405646 33535","GP_ID":"187068867","EPHEMERIS_TYPE":"0","INCLINATION":"53.0539","MEAN_MOTION":"15.06405646","TLE_LINE1":"1 47896U 21021AN  21286.45406198  .00000755  00000-0  69552-4 0  9994","MEAN_ANOMALY":"286.6879","LAUNCH_DATE":"2021-03-14","MEAN_MOTION_DDOT":"0.0000000000000","RA_OF_ASC_NODE":"306.2171","OBJECT_TYPE":"PAYLOAD","REF_FRAME":"TEME","APOAPSIS":"547.905","EPOCH":"2021-10-13T10:53:50.955072","MEAN_MOTION_DOT":"0.00000755","BSTAR":"0.00006955200000","OBJECT_ID":"2021-021AN","DECAY_DATE":null,"MEAN_ELEMENT_THEORY":"SGP4","ARG_OF_PERICENTER":"73.4223","SEMIMAJOR_AXIS":"6925.331","CENTER_NAME":"EARTH","ELEMENT_SET_NO":"999"},{"SEMIMAJOR_AXIS":"6925.371","CENTER_NAME":"EARTH","ARG_OF_PERICENTER":"80.8834","MEAN_ELEMENT_THEORY":"SGP4","ELEMENT_SET_NO":"999","DECAY_DATE":null,"OBJECT_ID":"2021-021AP","APOAPSIS":"548.211","REF_FRAME":"TEME","OBJECT_TYPE":"PAYLOAD","RA_OF_ASC_NODE":"290.0736","MEAN_MOTION_DDOT":"0.0000000000000","BSTAR":"0.00000481660000","MEAN_MOTION_DOT":"-0.00000210","EPOCH":"2021-10-13T17:24:36.451296","MEAN_MOTION":"15.06392670","LAUNCH_DATE":"2021-03-14","MEAN_ANOMALY":"279.2314","TLE_LINE1":"1 47897U 21021AP  21286.72542189 -.00000210  00000-0  48166-5 0  9992","INCLINATION":"53.0562","EPHEMERIS_TYPE":"0","TLE_LINE2":"2 47897  53.0562 290.0736 0001408  80.8834 279.2314 15.06392670 33844","SITE":"AFETR","GP_ID":"187101755","CLASSIFICATION_TYPE":"U","RCS_SIZE":"MEDIUM","NORAD_CAT_ID":"47897","FILE":"3161149","COUNTRY_CODE":"US","REV_AT_EPOCH":"3384","TIME_SYSTEM":"UTC","OBJECT_NAME":"STARLINK-2357","PERIAPSIS":"546.261","ECCENTRICITY":"0.00014080","PERIOD":"95.593"},{"OBJECT_NAME":"STARLINK-2358","TIME_SYSTEM":"UTC","REV_AT_EPOCH":"3378","PERIOD":"95.592","PERIAPSIS":"546.389","ECCENTRICITY":"0.00011980","RCS_SIZE":"LARGE","CLASSIFICATION_TYPE":"U","COUNTRY_CODE":"US","FILE":"3161149","NORAD_CAT_ID":"47898","SITE":"AFETR","TLE_LINE2":"2 47898  53.0567 290.0749 0001198  78.4072 281.7051 15.06398331 33786","GP_ID":"187101006","EPHEMERIS_TYPE":"0","INCLINATION":"53.0567","MEAN_MOTION":"15.06398331","MEAN_ANOMALY":"281.7051","TLE_LINE1":"1 47898U 21021AQ  21286.71899483  .00001224  00000-0  10104-3 0  9998","LAUNCH_DATE":"2021-03-14","MEAN_MOTION_DDOT":"0.0000000000000","RA_OF_ASC_NODE":"290.0749","OBJECT_TYPE":"PAYLOAD","REF_FRAME":"TEME","APOAPSIS":"548.048","EPOCH":"2021-10-13T17:15:21.153312","MEAN_MOTION_DOT":"0.00001224","BSTAR":"0.00010104000000","OBJECT_ID":"2021-021AQ","DECAY_DATE":null,"MEAN_ELEMENT_THEORY":"SGP4","CENTER_NAME":"EARTH","SEMIMAJOR_AXIS":"6925.354","ARG_OF_PERICENTER":"78.4072","ELEMENT_SET_NO":"999"}];
